start=new Date('2022-06-28T00:00:00.000Z').valueOf();
sats=[{"MEAN_ANOMALY":"297.9151","PERIOD":"95.439","GP_ID":"206994108","INCLINATION":"53.2162","MEAN_MOTION":"15.08824625","COUNTRY_CODE":"US","EPHEMERIS_TYPE":"0","SITE":"AFETR","CLASSIFICATION_TYPE":"U","ECCENTRICITY":"0.00027330","MEAN_MOTION_DDOT":"0.0000000000000","CENTER_NAME":"EARTH","TIME_SYSTEM":"UTC","EPOCH":"2022-06-27T19:02:38.217696","TLE_LINE2":"2 49745  53.2162  93.5402 0002733  62.2118 297.9151 15.08824625 31591","REV_AT_EPOCH":"3159","BSTAR":"-0.00035553000000","APOAPSIS":"541.683","OBJECT_NAME":"STARLINK-3241","RCS_SIZE":"LARGE","MEAN_ELEMENT_THEORY":"SGP4","PERIAPSIS":"537.902","MEAN_MOTION_DOT":"-0.00005940","ARG_OF_PERICENTER":"62.2118","OBJECT_TYPE":"PAYLOAD","FILE":"3504144","OBJECT_ID":"2021-115X","LAUNCH_DATE":"2021-12-02","NORAD_CAT_ID":"49745","DECAY_DATE":null,"REF_FRAME":"TEME","RA_OF_ASC_NODE":"93.5402","TLE_LINE1":"1 49745U 21115X   22178.79349789 -.00005940  00000-0 -35553-3 0  9999","ELEMENT_SET_NO":"999","SEMIMAJOR_AXIS":"6917.927"},{"FILE":"3503631","OBJECT_TYPE":"PAYLOAD","ARG_OF_PERICENTER":"58.0110","NORAD_CAT_ID":"49746","DECAY_DATE":null,"REF_FRAME":"TEME","RA_OF_ASC_NODE":"96.4287","TLE_LINE1":"1 49746U 21115Y   22178.14948881 -.00001032  00000-0 -46730-4 0  9995","SEMIMAJOR_AXIS":"6917.889","ELEMENT_SET_NO":"999","OBJECT_ID":"2021-115Y","LAUNCH_DATE":"2021-12-02","COUNTRY_CODE":"US","MEAN_MOTION":"15.08837334","SITE":"AFETR","EPHEMERIS_TYPE":"0","ECCENTRICITY":"0.00023310","CLASSIFICATION_TYPE":"U","MEAN_MOTION_DDOT":"0.0000000000000","MEAN_ANOMALY":"302.1108","PERIOD":"95.438","INCLINATION":"53.2153","GP_ID":"206933036","APOAPSIS":"541.366","BSTAR":"-0.00004673000000","OBJECT_NAME":"STARLINK-3233","MEAN_ELEMENT_THEORY":"SGP4","RCS_SIZE":"LARGE","MEAN_MOTION_DOT":"-0.00001032","PERIAPSIS":"538.141","TIME_SYSTEM":"UTC","CENTER_NAME":"EARTH","EPOCH":"2022-06-27T03:35:15.833184","REV_AT_EPOCH":"3260","TLE_LINE2":"2 49746  53.2153  96.4287 0002331  58.0110 302.1108 15.08837334 32609"},{"CLASSIFICATION_TYPE":"U","ECCENTRICITY":"0.00028960","MEAN_MOTION_DDOT":"0.0000000000000","COUNTRY_CODE":"US","MEAN_MOTION":"15.08839068","SITE":"AFETR","EPHEMERIS_TYPE":"0","INCLINATION":"53.2165","GP_ID":"206964065","PERIOD":"95.438","MEAN_ANOMALY":"300.2728","MEAN_ELEMENT_THEORY":"SGP4","RCS_SIZE":"LARGE","MEAN_MOTION_DOT":"0.00001330","PERIAPSIS":"537.745","APOAPSIS":"541.752","BSTAR":"0.00010167000000","OBJECT_NAME":"STARLINK-3247","REV_AT_EPOCH":"3154","TLE_LINE2":"2 49747  53.2165  94.9766 0002896  59.8551 300.2728 15.08839068 31547","TIME_SYSTEM":"UTC","CENTER_NAME":"EARTH","EPOCH":"2022-06-27T11:16:17.690016","FILE":"3503902","OBJECT_TYPE":"PAYLOAD","ARG_OF_PERICENTER":"59.8551","RA_OF_ASC_NODE":"94.9766","TLE_LINE1":"1 49747U 21115Z   22178.46964919  .00001330  00000-0  10167-3 0  9994","SEMIMAJOR_AXIS":"6917.883","ELEMENT_SET_NO":"999","NORAD_CAT_ID":"49747","REF_FRAME":"TEME","DECAY_DATE":null,"OBJECT_ID":"2021-115Z","LAUNCH_DATE":"2021-12-02"},{"MEAN_ANOMALY":"298.4199","PERIOD":"95.437","INCLINATION":"53.2191","GP_ID":"206993363","COUNTRY_CODE":"US","MEAN_MOTION":"15.08844289","SITE":"AFETR","EPHEMERIS_TYPE":"0","ECCENTRICITY":"0.00026920","CLASSIFICATION_TYPE":"U","MEAN_MOTION_DDOT":"0.0000000000000","TIME_SYSTEM":"UTC","CENTER_NAME":"EARTH","EPOCH":"2022-06-27T19:39:43.655328","REV_AT_EPOCH":"3160","TLE_LINE2":"2 49748  53.2191  93.4224 0002692  61.7065 298.4199 15.08844289 31604","APOAPSIS":"541.595","BSTAR":"0.00026588000000","OBJECT_NAME":"STARLINK-3248","MEAN_ELEMENT_THEORY":"SGP4","RCS_SIZE":"LARGE","MEAN_MOTION_DOT":"0.00003946","PERIAPSIS":"537.870","OBJECT_TYPE":"PAYLOAD","ARG_OF_PERICENTER":"61.7065","FILE":"3504144","OBJECT_ID":"2021-115AA","LAUNCH_DATE":"2021-12-02","NORAD_CAT_ID":"49748","REF_FRAME":"TEME","DECAY_DATE":null,"TLE_LINE1":"1 49748U 21115AA  22178.81925527  .00003946  00000-0  26588-3 0  9995","RA_OF_ASC_NODE":"93.4224","SEMIMAJOR_AXIS":"6917.867","ELEMENT_SET_NO":"999"},{"FILE":"3503631","OBJECT_TYPE":"PAYLOAD","ARG_OF_PERICENTER":"51.2597","NORAD_CAT_ID":"49749","REF_FRAME":"TEME","DECAY_DATE":null,"RA_OF_ASC_NODE":"96.4387","TLE_LINE1":"1 49749U 21115AB  22178.14581113  .00000405  00000-0  43537-4 0  9992","SEMIMAJOR_AXIS":"6917.887","ELEMENT_SET_NO":"999","OBJECT_ID":"2021-115AB","LAUNCH_DATE":"2021-12-02","COUNTRY_CODE":"US","MEAN_MOTION":"15.08837898","SITE":"AFETR","EPHEMERIS_TYPE":"0","CLASSIFICATION_TYPE":"U","ECCENTRICITY":"0.00021230","MEAN_MOTION_DDOT":"0.0000000000000","MEAN_ANOMALY":"308.8585","PERIOD":"95.438","GP_ID":"206933038","INCLINATION":"53.2158","APOAPSIS":"541.220","BSTAR":"0.00004353700000","OBJECT_NAME":"STARLINK-3250","MEAN_ELEMENT_THEORY":"SGP4","RCS_SIZE":"LARGE","MEAN_MOTION_DOT":"0.00000405","PERIAPSIS":"538.283","TIME_SYSTEM":"UTC","CENTER_NAME":"EARTH","EPOCH":"2022-06-27T03:29:58.081632","REV_AT_EPOCH":"3260","TLE_LINE2":"2 49749  53.2158  96.4387 0002123  51.2597 308.8585 15.08837898 32608"},{"OBJECT_ID":"2021-115AC","LAUNCH_DATE":"2021-12-02","NORAD_CAT_ID":"49750","REF_FRAME":"TEME","DECAY_DATE":null,"RA_OF_ASC_NODE":"93.3923","TLE_LINE1":"1 49750U 21115AC  22178.82662017 -.00000814  00000-0 -32996-4 0  9995","SEMIMAJOR_AXIS":"6917.906","ELEMENT_SET_NO":"999","OBJECT_TYPE":"PAYLOAD","ARG_OF_PERICENTER":"54.8669","FILE":"3504144","TIME_SYSTEM":"UTC","CENTER_NAME":"EARTH","EPOCH":"2022-06-27T19:50:19.982688","REV_AT_EPOCH":"3160","TLE_LINE2":"2 49750  53.2193  93.3923 0003032  54.8669 305.2607 15.08831769 31606","APOAPSIS":"541.868","BSTAR":"-0.00003299600000","OBJECT_NAME":"STARLINK-3236","MEAN_ELEMENT_THEORY":"SGP4","RCS_SIZE":"LARGE","MEAN_MOTION_DOT":"-0.00000814","PERIAPSIS":"537.673","MEAN_ANOMALY":"305.2607","PERIOD":"95.438","INCLINATION":"53.2193","GP_ID":"206992861","COUNTRY_CODE":"US","MEAN_MOTION":"15.08831769","SITE":"AFETR","EPHEMERIS_TYPE":"0","CLASSIFICATION_TYPE":"U","ECCENTRICITY":"0.00030320","MEAN_MOTION_DDOT":"0.0000000000000"},{"INCLINATION":"53.2214","GP_ID":"206933028","MEAN_ANOMALY":"305.6731","PERIOD":"95.437","CLASSIFICATION_TYPE":"U","ECCENTRICITY":"0.00023800","MEAN_MOTION_DDOT":"0.0000000000000","MEAN_MOTION":"15.08842259","COUNTRY_CODE":"US","EPHEMERIS_TYPE":"0","SITE":"AFETR","TLE_LINE2":"2 49751  53.2214  96.4066 0002380  54.4483 305.6731 15.08842259 32607","REV_AT_EPOCH":"3260","CENTER_NAME":"EARTH","TIME_SYSTEM":"UTC","EPOCH":"2022-06-27T03:40:33.885408","RCS_SIZE":"LARGE","MEAN_ELEMENT_THEORY":"SGP4","PERIAPSIS":"538.092","MEAN_MOTION_DOT":"0.00001590","BSTAR":"0.00011796000000","APOAPSIS":"541.385","OBJECT_NAME":"STARLINK-3229","ARG_OF_PERICENTER":"54.4483","OBJECT_TYPE":"PAYLOAD","FILE":"3503619","OBJECT_ID":"2021-115AD","LAUNCH_DATE":"2021-12-02","RA_OF_ASC_NODE":"96.4066","TLE_LINE1":"1 49751U 21115AD  22178.15316997  .00001590  00000-0  11796-3 0  9999","ELEMENT_SET_NO":"999","SEMIMAJOR_AXIS":"6917.873","NORAD_CAT_ID":"49751","DECAY_DATE":null,"REF_FRAME":"TEME"},{"FILE":"3503902","OBJECT_TYPE":"PAYLOAD","ARG_OF_PERICENTER":"55.1351","SEMIMAJOR_AXIS":"6917.894","ELEMENT_SET_NO":"999","TLE_LINE1":"1 49752U 21115AE  22178.24609221 -.00000289  00000-0 -33893-7 0  9997","RA_OF_ASC_NODE":"86.0025","REF_FRAME":"TEME","DECAY_DATE":null,"NORAD_CAT_ID":"49752","LAUNCH_DATE":"2021-12-02","OBJECT_ID":"2021-115AE","MEAN_MOTION_DDOT":"0.0000000000000","ECCENTRICITY":"0.00019450","CLASSIFICATION_TYPE":"U","SITE":"AFETR","EPHEMERIS_TYPE":"0","COUNTRY_CODE":"US","MEAN_MOTION":"15.08835393","GP_ID":"206964313","INCLINATION":"53.2165","PERIOD":"95.438","MEAN_ANOMALY":"304.9823","MEAN_MOTION_DOT":"-0.00000289","PERIAPSIS":"538.414","MEAN_ELEMENT_THEORY":"SGP4","RCS_SIZE":"LARGE","OBJECT_NAME":"STARLINK-3209","APOAPSIS":"541.105","BSTAR":"-0.00000003389300","REV_AT_EPOCH":"3165","TLE_LINE2":"2 49752  53.2165  86.0025 0001945  55.1351 304.9823 15.08835393 31650","EPOCH":"2022-06-27T05:54:22.366944","TIME_SYSTEM":"UTC","CENTER_NAME":"EARTH"},{"EPOCH":"2022-06-27T19:45:00.192096","TIME_SYSTEM":"UTC","CENTER_NAME":"EARTH","TLE_LINE2":"2 49753  53.2188  93.4091 0002627  60.7789 299.3466 15.08837829 31607","REV_AT_EPOCH":"3160","OBJECT_NAME":"STARLINK-3200","BSTAR":"-0.00036700000000","APOAPSIS":"541.569","PERIAPSIS":"537.935","MEAN_MOTION_DOT":"-0.00006125","RCS_SIZE":"LARGE","MEAN_ELEMENT_THEORY":"SGP4","PERIOD":"95.438","MEAN_ANOMALY":"299.3466","GP_ID":"206994109","INCLINATION":"53.2188","EPHEMERIS_TYPE":"0","SITE":"AFETR","MEAN_MOTION":"15.08837829","COUNTRY_CODE":"US","MEAN_MOTION_DDOT":"0.0000000000000","ECCENTRICITY":"0.00026270","CLASSIFICATION_TYPE":"U","LAUNCH_DATE":"2021-12-02","OBJECT_ID":"2021-115AF","DECAY_DATE":null,"REF_FRAME":"TEME","NORAD_CAT_ID":"49753","SEMIMAJOR_AXIS":"6917.887","ELEMENT_SET_NO":"999","RA_OF_ASC_NODE":"93.4091","TLE_LINE1":"1 49753U 21115AF  22178.82291889 -.00006125  00000-0 -36700-3 0  9990","ARG_OF_PERICENTER":"60.7789","OBJECT_TYPE":"PAYLOAD","FILE":"3504144"},{"INCLINATION":"53.2171","GP_ID":"206992362","MEAN_ANOMALY":"298.7492","PERIOD":"95.438","CLASSIFICATION_TYPE":"U","ECCENTRICITY":"0.00091060","MEAN_MOTION_DDOT":"0.0000000000000","MEAN_MOTION":"15.08838375","COUNTRY_CODE":"US","EPHEMERIS_TYPE":"0","SITE":"AFETR","TLE_LINE2":"2 49754  53.2171  83.0414 0009106  61.4416 298.7492 15.08838375 31753","REV_AT_EPOCH":"3175","CENTER_NAME":"EARTH","TIME_SYSTEM":"UTC","EPOCH":"2022-06-27T21:39:01.093536","RCS_SIZE":"LARGE","MEAN_ELEMENT_THEORY":"SGP4","PERIAPSIS":"533.451","MEAN_MOTION_DOT":"0.00000120","BSTAR":"0.00002584400000","APOAPSIS":"546.050","OBJECT_NAME":"STARLINK-3193","ARG_OF_PERICENTER":"61.4416","OBJECT_TYPE":"PAYLOAD","FILE":"3504144","OBJECT_ID":"2021-115AG","LAUNCH_DATE":"2021-12-02","RA_OF_ASC_NODE":"83.0414","TLE_LINE1":"1 49754U 21115AG  22178.90209599  .00000120  00000-0  25844-4 0  9992","SEMIMAJOR_AXIS":"6917.885","ELEMENT_SET_NO":"999","NORAD_CAT_ID":"49754","REF_FRAME":"TEME","DECAY_DATE":null}];
